CCSDS_OMM_VERS = 2.0
CREATION_DATE  = 
ORIGINATOR     = 

OBJECT_NAME    = SL-3 R/B
OBJECT_ID      = 1982-079B
CENTER_NAME    = EARTH
REF_FRAME      = TEME
TIME_SYSTEM    = UTC
MEAN_ELEMENT_THEORY = SGP/SGP4

EPOCH          = 2025-12-27T18:50:50.250048
MEAN_MOTION    = 15.23769778
ECCENTRICITY   = .0026776
INCLINATION    = 81.1470
RA_OF_ASC_NODE = 277.9250
ARG_OF_PERICENTER = 50.9025
MEAN_ANOMALY   = 309.4583

EPHEMERIS_TYPE = 0
CLASSIFICATION_TYPE = U
NORAD_CAT_ID   = 13403
ELEMENT_SET_NO = 999
REV_AT_EPOCH   = 36674
BSTAR          = .33115E-3
MEAN_MOTION_DOT = .8072E-4
MEAN_MOTION_DDOT = 0

CCSDS_OMM_VERS = 2.0
CREATION_DATE  = 
ORIGINATOR     = 

OBJECT_NAME    = SL-14 R/B
OBJECT_ID      = 1982-092B
CENTER_NAME    = EARTH
REF_FRAME      = TEME
TIME_SYSTEM    = UTC
MEAN_ELEMENT_THEORY = SGP/SGP4

EPOCH          = 2025-12-27T16:36:54.453024
MEAN_MOTION    = 14.86570142
ECCENTRICITY   = .002038
INCLINATION    = 82.5670
RA_OF_ASC_NODE = 208.7277
ARG_OF_PERICENTER = 175.8925
MEAN_ANOMALY   = 252.7667

EPHEMERIS_TYPE = 0
CLASSIFICATION_TYPE = U
NORAD_CAT_ID   = 13553
ELEMENT_SET_NO = 999
REV_AT_EPOCH   = 31823
BSTAR          = .61489E-4
MEAN_MOTION_DOT = .571E-5
MEAN_MOTION_DDOT = 0

CCSDS_OMM_VERS = 2.0
CREATION_DATE  = 
ORIGINATOR     = 

OBJECT_NAME    = SL-3 R/B
OBJECT_ID      = 1983-010B
CENTER_NAME    = EARTH
REF_FRAME      = TEME
TIME_SYSTEM    = UTC
MEAN_ELEMENT_THEORY = SGP/SGP4

EPOCH          = 2025-12-27T17:54:00.887040
MEAN_MOTION    = 15.43877307
ECCENTRICITY   = .0016464
INCLINATION    = 81.1041
RA_OF_ASC_NODE = 90.2970
ARG_OF_PERICENTER = 297.6616
MEAN_ANOMALY   = 62.2956

EPHEMERIS_TYPE = 0
CLASSIFICATION_TYPE = U
NORAD_CAT_ID   = 13819
ELEMENT_SET_NO = 999
REV_AT_EPOCH   = 34683
BSTAR          = .36852E-3
MEAN_MOTION_DOT = .1685E-3
MEAN_MOTION_DDOT = 0

CCSDS_OMM_VERS = 2.0
CREATION_DATE  = 
ORIGINATOR     = 

OBJECT_NAME    = SL-3 R/B
OBJECT_ID      = 1983-075B
CENTER_NAME    = EARTH
REF_FRAME      = TEME
TIME_SYSTEM    = UTC
MEAN_ELEMENT_THEORY = SGP/SGP4

EPOCH          = 2025-12-27T19:59:56.918688
MEAN_MOTION    = 15.36447535
ECCENTRICITY   = .0024222
INCLINATION    = 97.6115
RA_OF_ASC_NODE = 358.8269
ARG_OF_PERICENTER = 123.6204
MEAN_ANOMALY   = 236.7355

EPHEMERIS_TYPE = 0
CLASSIFICATION_TYPE = U
NORAD_CAT_ID   = 14208
ELEMENT_SET_NO = 999
REV_AT_EPOCH   = 31911
BSTAR          = .36095E-3
MEAN_MOTION_DOT = .1288E-3
MEAN_MOTION_DDOT = 0

CCSDS_OMM_VERS = 2.0
CREATION_DATE  = 
ORIGINATOR     = 

OBJECT_NAME    = COSMOS 1536
OBJECT_ID      = 1984-013A
CENTER_NAME    = EARTH
REF_FRAME      = TEME
TIME_SYSTEM    = UTC
MEAN_ELEMENT_THEORY = SGP/SGP4

EPOCH          = 2025-12-27T14:14:08.788128
MEAN_MOTION    = 15.22691392
ECCENTRICITY   = .0014725
INCLINATION    = 82.5449
RA_OF_ASC_NODE = 179.4313
ARG_OF_PERICENTER = 171.1998
MEAN_ANOMALY   = 188.9499

EPHEMERIS_TYPE = 0
CLASSIFICATION_TYPE = U
NORAD_CAT_ID   = 14699
ELEMENT_SET_NO = 999
REV_AT_EPOCH   = 26164
BSTAR          = .31259E-3
MEAN_MOTION_DOT = .7336E-4
MEAN_MOTION_DDOT = 0

CCSDS_OMM_VERS = 2.0
CREATION_DATE  = 
ORIGINATOR     = 

OBJECT_NAME    = SL-14 R/B
OBJECT_ID      = 1984-027B
CENTER_NAME    = EARTH
REF_FRAME      = TEME
TIME_SYSTEM    = UTC
MEAN_ELEMENT_THEORY = SGP/SGP4

EPOCH          = 2025-12-27T20:12:39.269952
MEAN_MOTION    = 14.85890958
ECCENTRICITY   = .0017137
INCLINATION    = 82.5424
RA_OF_ASC_NODE = 312.3933
ARG_OF_PERICENTER = 206.9513
MEAN_ANOMALY   = 153.0815

EPHEMERIS_TYPE = 0
CLASSIFICATION_TYPE = U
NORAD_CAT_ID   = 14820
ELEMENT_SET_NO = 999
REV_AT_EPOCH   = 23696
BSTAR          = .71723E-4
MEAN_MOTION_DOT = .65E-5
MEAN_MOTION_DDOT = 0

CCSDS_OMM_VERS = 2.0
CREATION_DATE  = 
ORIGINATOR     = 

OBJECT_NAME    = SL-8 R/B
OBJECT_ID      = 1985-006B
CENTER_NAME    = EARTH
REF_FRAME      = TEME
TIME_SYSTEM    = UTC
MEAN_ELEMENT_THEORY = SGP/SGP4

EPOCH          = 2025-12-27T20:56:09.437280
MEAN_MOTION    = 14.37730634
ECCENTRICITY   = .0019353
INCLINATION    = 74.0459
RA_OF_ASC_NODE = 33.2928
ARG_OF_PERICENTER = 322.5314
MEAN_ANOMALY   = 210.4009

EPHEMERIS_TYPE = 0
CLASSIFICATION_TYPE = U
NORAD_CAT_ID   = 15483
ELEMENT_SET_NO = 999
REV_AT_EPOCH   = 14370
BSTAR          = .12033E-3
MEAN_MOTION_DOT = .336E-5
MEAN_MOTION_DDOT = 0

CCSDS_OMM_VERS = 2.0
CREATION_DATE  = 
ORIGINATOR     = 

OBJECT_NAME    = SL-12 R/B(2)
OBJECT_ID      = 1985-042D
CENTER_NAME    = EARTH
REF_FRAME      = TEME
TIME_SYSTEM    = UTC
MEAN_ELEMENT_THEORY = SGP/SGP4

EPOCH          = 2025-12-27T20:57:21.491424
MEAN_MOTION    = 14.21956301
ECCENTRICITY   = .0037199
INCLINATION    = 71.1066
RA_OF_ASC_NODE = 239.4498
ARG_OF_PERICENTER = 239.2682
MEAN_ANOMALY   = 195.1984

EPHEMERIS_TYPE = 0
CLASSIFICATION_TYPE = U
NORAD_CAT_ID   = 15772
ELEMENT_SET_NO = 999
REV_AT_EPOCH   = 10418
BSTAR          = .67372E-4
MEAN_MOTION_DOT = .102E-5
MEAN_MOTION_DDOT = 0

CCSDS_OMM_VERS = 2.0
CREATION_DATE  = 
ORIGINATOR     = 

OBJECT_NAME    = SL-14 R/B
OBJECT_ID      = 1985-069B
CENTER_NAME    = EARTH
REF_FRAME      = TEME
TIME_SYSTEM    = UTC
MEAN_ELEMENT_THEORY = SGP/SGP4

EPOCH          = 2025-12-27T17:08:21.827328
MEAN_MOTION    = 14.86341773
ECCENTRICITY   = .0020248
INCLINATION    = 82.5272
RA_OF_ASC_NODE = 92.6260
ARG_OF_PERICENTER = 72.4823
MEAN_ANOMALY   = 287.8604

EPHEMERIS_TYPE = 0
CLASSIFICATION_TYPE = U
NORAD_CAT_ID   = 15945
ELEMENT_SET_NO = 999
REV_AT_EPOCH   = 16214
BSTAR          = .69619E-4
MEAN_MOTION_DOT = .64E-5
MEAN_MOTION_DDOT = 0

CCSDS_OMM_VERS = 2.0
CREATION_DATE  = 
ORIGINATOR     = 

OBJECT_NAME    = SL-16 R/B
OBJECT_ID      = 1985-097B
CENTER_NAME    = EARTH
REF_FRAME      = TEME
TIME_SYSTEM    = UTC
MEAN_ELEMENT_THEORY = SGP/SGP4

EPOCH          = 2025-12-27T21:21:46.133856
MEAN_MOTION    = 14.16586798
ECCENTRICITY   = .0007641
INCLINATION    = 71.0033
RA_OF_ASC_NODE = 291.7075
ARG_OF_PERICENTER = 347.5377
MEAN_ANOMALY   = 70.3286

EPHEMERIS_TYPE = 0
CLASSIFICATION_TYPE = U
NORAD_CAT_ID   = 16182
ELEMENT_SET_NO = 999
REV_AT_EPOCH   = 7706
BSTAR          = -.71049E-4
MEAN_MOTION_DOT = -.19E-5
MEAN_MOTION_DDOT = 0

CCSDS_OMM_VERS = 2.0
CREATION_DATE  = 
ORIGINATOR     = 

OBJECT_NAME    = SL-14 R/B
OBJECT_ID      = 1986-006B
CENTER_NAME    = EARTH
REF_FRAME      = TEME
TIME_SYSTEM    = UTC
MEAN_ELEMENT_THEORY = SGP/SGP4

EPOCH          = 2025-12-27T08:56:40.816032
MEAN_MOTION    = 14.86689946
ECCENTRICITY   = .0077451
INCLINATION    = 82.5274
RA_OF_ASC_NODE = 327.7821
ARG_OF_PERICENTER = 151.3454
MEAN_ANOMALY   = 209.2054

EPHEMERIS_TYPE = 0
CLASSIFICATION_TYPE = U
NORAD_CAT_ID   = 16496
ELEMENT_SET_NO = 999
REV_AT_EPOCH   = 13846
BSTAR          = .73558E-4
MEAN_MOTION_DOT = .718E-5
MEAN_MOTION_DDOT = 0

CCSDS_OMM_VERS = 2.0
CREATION_DATE  = 
ORIGINATOR     = 

OBJECT_NAME    = COSMOS 1743
OBJECT_ID      = 1986-034A
CENTER_NAME    = EARTH
REF_FRAME      = TEME
TIME_SYSTEM    = UTC
MEAN_ELEMENT_THEORY = SGP/SGP4

EPOCH          = 2025-12-27T11:28:55.653024
MEAN_MOTION    = 15.53020145
ECCENTRICITY   = .0005056
INCLINATION    = 82.5346
RA_OF_ASC_NODE = 149.2732
ARG_OF_PERICENTER = 193.4487
MEAN_ANOMALY   = 166.6632

EPHEMERIS_TYPE = 0
CLASSIFICATION_TYPE = U
NORAD_CAT_ID   = 16719
ELEMENT_SET_NO = 999
REV_AT_EPOCH   = 16902
BSTAR          = .58104E-3
MEAN_MOTION_DOT = .36403E-3
MEAN_MOTION_DDOT = 0

