SL-3 R/B                
1 13403U 82079B   25361.78530382  .00008072  00000+0  33115-3 0  9992
2 13403  81.1470 277.9250 0026776  50.9025 309.4583 15.23769778366748
SL-14 R/B               
1 13553U 82092B   25361.69229691  .00000571  00000+0  61489-4 0  9993
2 13553  82.5670 208.7277 0020380 175.8925 252.7667 14.86570142318230
SL-3 R/B                
1 13819U 83010B   25361.74584360  .00016850  00000+0  36852-3 0  9994
2 13819  81.1041  90.2970 0016464 297.6616  62.2956 15.43877307346833
SL-3 R/B                
1 14208U 83075B   25361.83329767  .00012880  00000+0  36095-3 0  9994
2 14208  97.6115 358.8269 0024222 123.6204 236.7355 15.36447535319116
COSMOS 1536             
1 14699U 84013A   25361.59315727  .00007336  00000+0  31259-3 0  9992
2 14699  82.5449 179.4313 0014725 171.1998 188.9499 15.22691392261643
SL-14 R/B               
1 14820U 84027B   25361.84212118  .00000650  00000+0  71723-4 0  9994
2 14820  82.5424 312.3933 0017137 206.9513 153.0815 14.85890958236967
SL-8 R/B                
1 15483U 85006B   25361.87233145  .00000336  00000+0  12033-3 0  9993
2 15483  74.0459  33.2928 0019353 322.5314 210.4009 14.37730634143709
SL-12 R/B(2)            
1 15772U 85042D   25361.87316541  .00000102  00000+0  67372-4 0  9994
2 15772  71.1066 239.4498 0037199 239.2682 195.1984 14.21956301104188
SL-14 R/B               
1 15945U 85069B   25361.71414152  .00000640  00000+0  69619-4 0  9998
2 15945  82.5272  92.6260 0020248  72.4823 287.8604 14.86341773162142
SL-16 R/B               
1 16182U 85097B   25361.89011729 -.00000190  00000+0 -71049-4 0  9997
2 16182  71.0033 291.7075 0007641 347.5377  70.3286 14.16586798 77060
SL-14 R/B               
1 16496U 86006B   25361.37269463  .00000718  00000+0  73558-4 0  9990
2 16496  82.5274 327.7821 0077451 151.3454 209.2054 14.86689946138468
COSMOS 1743             
1 16719U 86034A   25361.47842191  .00036403  00000+0  58104-3 0  9994
2 16719  82.5346 149.2732 0005056 193.4487 166.6632 15.53020145169028
